BRO-15                  
1 60553U 24149CP  26068.78650368  .00000816  00000+0  78021-4 0  9990
2 60553  97.6864 146.0377 0009320  65.4416 294.7775 14.95892184 85149
STARLINK-34030          
1 64030U 25102J   26068.52412471  .00003881  00000+0  33281-3 0  9990
2 64030  70.0016 115.0253 0002798 258.7362 101.3483 14.98340563 45939
